#dP2021  3  4 12  0  0.00000000      96 __u+U ITR00 EXT  IAC
## 2147 388800.00000000   900.00000000 59277 0.5000000000000
+  116   C06C07C08C09C10C11C12C13C14C16C19C20C21C22C23C24C25
+        C26C27C28C29C30C32C33C34C35C36C37C38C39C40C41C42C43
+        C44C45C46E01E02E03E04E05E07E08E09E11E12E13E14E15E18
+        E19E21E24E25E26E27E30E31E33E36G01G02G03G05G06G07G08
+        G09G10G11G12G13G14G15G16G17G18G19G20G21G22G23G24G25
+        G26G27G28G29G30G31G32J01J02J03R01R02R03R04R05R07R08
+        R09R11R12R13R14R15R16R17R18R19R20R21R22R24  0  0  0
++        10  9  9  9  9 10  8  9 10  9  9  9  8  9 10  8  8
++         8 10  9  9 11  9  9  8  7  9  9 12  9 10  9  9 10
++        10 10  9 10  8  7  7  8  9  9  8  7  8  8  9  9  8
++         8  6  7  8  8  8  8  6  9  9  8  9  7  9  7  7  8
++         7  7  9  8  7  8  8  8  8  7  9  7  8  8  9  7  7
++         7  7  7  7  7  8  7 12  9 12  8  8  8  9  8  9  9
++         9  8  9 10  7 10 10  8  9  8 10  9 10  8  0  0  0
%c M  cc GPS ccc cccc cccc cccc cccc ccccc ccccc ccccc ccccc
%c cc cc ccc ccc cccc cccc cccc cccc ccccc ccccc ccccc ccccc
%f  0.0000000  0.000000000  0.00000000000  0.000000000000000
%f  0.0000000  0.000000000  0.00000000000  0.000000000000000
%i    0    0    0    0      0      0      0      0         0
%i    0    0    0    0      0      0      0      0         0
/* IAC                                ULTRA-RAPID PREDICTION
/* S/V CLOCKS ARE ALIGNED TO GNSS TIME                      
/* G:C1WC2W R:C1PC2P E:C1XC5X C:C2IC6I J:C1CC2S             
/* PCV:IGS14_2134 OL/AL:FES2004  NONE     YN ORB:CoN CLK:CoN
*  2021 03 04 22  0  0.00000000
PC06  -6914.869255  26954.870987  32245.804188    146.207763
PC07 -24068.027366  26553.422629 -22330.951854   -385.552957
PC08 -16004.982971  37873.875818  -8278.869642   -904.875094
PC09   6235.291140  34387.960415  24162.559243    691.650973
PC10  -9400.517543  28267.797605 -29770.549701    -76.813238
PC11  -1371.594340 -22132.158835  17027.529788   -888.054477
PC12  12943.819537  -8247.577669  23343.222741    840.724013
PC13  -6783.886672  41018.027241   6248.261942    166.660596
PC14   7317.917209 -15858.238241 -21724.932292    318.956258
PC16  -2818.974991  28678.048350  30950.168825   -720.313302
PC19   4034.052568  15513.713362  22870.036362    749.701265
PC20 -16074.769255  14020.210395  18026.680112   -923.728843
PC21  27524.849699  -3992.922154  -2129.032945   -867.880621
PC22  22377.367712   8089.501993  14564.306573   -902.926615
PC23 -12285.357178 -11364.812697  22329.007933   -876.311964
PC24  14673.444145 -23314.813710  -4571.042018   -774.329814
PC25    601.821700 -24587.896927  13198.353727   -954.282144
PC26  18651.788342  -9716.526244 -18371.226404    940.076159
PC27 -18381.954928  -1340.475843 -20963.072355    493.248174
PC28 -19271.270875 -18497.423029  -8074.247652   -102.340721
PC29   9782.218164  24364.868898  -9471.635644    360.557831
PC30  -6518.758629  16397.929000 -21626.860090    449.798642
PC32 -27503.605353   4231.751614   2169.250157   -905.362654
PC33  -4062.428147 -15513.652831 -22829.722388   -951.293721
PC34   6050.043902 -16883.408966  21365.830048   -726.416327
PC35  19850.757905  18035.968332   7777.563906   -390.000082
PC36  -1438.580525  24677.957331 -12925.595387   -746.371521
PC37 -18799.193548   8355.695989  18856.417555   -871.681397
PC38 -14467.949375  39161.885807  -5419.254934    133.790748
PC39  -1123.240914  28579.015165  31034.959738     29.075348
PC40 -15172.134075  23331.690029 -31715.925541    137.640919
PC41 -22245.355576  -8153.884273 -14687.794543   -930.567446
PC42  16712.926881 -13810.070713 -17517.873264   -913.468704
PC43  -9245.585168 -24401.943005   9847.071449   -624.761685
PC44  18619.268513    931.901206  20771.912237     69.213288
PC45  12266.299796  11183.989842 -22431.102930    378.070806
PC46 -14135.150810  23744.541161   3735.256125    377.964484
PE01  21086.516270 -20293.225892   4482.712972  -1058.677222
PE02 -20997.860998  20331.545727  -4607.586259    202.700539
PE03 -14875.758425  11477.902504  22873.386013   -405.268233
PE04  -6176.798298 -19066.653229 -21777.230093   -722.152899
PE05 -27495.803338  -2957.616159  10557.336785   -299.694912
PE07  23955.313455  15532.788095   7803.251552   -508.560758
PE08   6648.064469  18948.242039  21744.486866   6038.097369
PE09 -24161.487164 -15290.077291  -7679.316302   5745.634266
PE11 -13807.633391 -20652.757567 -16077.932234   6246.144241
PE12  -2837.375479 -29346.930506   2485.501102   5326.490259
PE13  13679.906547  20980.379432  15794.139657    413.051134
PE14 -26355.050883  -1236.013290 -18182.929420  -1350.541326
PE15   2991.590933  29352.232239  -2432.839955    826.321635
PE18  21142.890473   6277.974309   9874.477108  -1476.646094
PE19  16919.216608  -9917.219858 -22168.108900    218.694959
PE21  25090.034127  -8254.259432 -13378.438092   -651.780378
PE24 -14091.703898  -9714.030393  24130.635261   -775.377035
PE25 -25047.809685   8092.958567  13528.556940   -527.717266
PE26  16382.333607   -519.602603  24657.766865   2079.536500
PE27  14717.424118   9028.209168 -24046.422886     17.330391
PE30  -5112.783677  21161.091296 -20058.306577   3133.226623
PE31   4255.975532 -20912.194801  20518.647733   -478.856421
PE33   9463.007342 -20421.163618  19228.950028   -466.223975
PE36 -16300.800354   -280.269886 -24695.159611    432.627431
PG01  13270.910788 -13267.043378  18408.176329    748.568689
PG02 -13361.330638 -11792.562015 -19026.447816   -582.897959
PG03  22863.709025 -13185.281297  -2480.409717    -99.103461
PG05 -22626.710221    794.341074 -14186.997715    -35.316838
PG06  -6367.278402 -22878.891832 -11772.745801     -0.655533
PG07   6884.232162 -24262.333478  -7142.292299     79.107598
PG08  21981.216985   1855.680957  15009.375254    -12.495311
PG09   6760.831709 -13916.783873 -21645.848491   -328.261154
PG10    775.700019  15962.183553  21280.880327    -74.156043
PG11  14472.078311  -6819.937402  20761.849855     -7.990216
PG12 -24726.125380   9387.405720    955.226662     -9.377613
PG13 -22261.364803 -12016.248311   8165.023299    104.038077
PG14   1532.497799 -16560.761334  20695.615481     99.536437
PG15 -22203.667255    729.690482  14453.916508   -165.357471
PG16  21518.658447   3179.218915 -15796.057124   -289.068592
PG17  -9581.346333 -19919.737338  15154.265221    404.236227
PG18  -5247.089626  25637.687977  -4361.989178    349.592114
PG19 -16192.098379 -19733.554183   7226.990894    -30.646649
PG20 -10489.623976  19745.368558  14075.522104    524.410412
PG21  15377.147873  -4605.053415  21838.324113    100.507539
PG22  24023.501685  -8653.008431   7167.630288   -667.268292
PG23 -10880.422354  18229.419870  15913.968237    118.121155
PG24 -14892.991612   7823.603883  20227.969010      1.545334
PG25 -16768.340170  17146.607873 -11361.683250     92.398642
PG26  13653.720760   9687.966251 -20725.529561     53.456111
PG27  23414.070463  12205.050592   4187.244203    -87.810844
PG28   -989.980303 -15649.577214  22020.624773    606.966463
PG29  -7230.400441  12941.450875 -22078.510426   -305.908713
PG30  -1036.695200 -26015.661018   4649.201310   -393.642994
PG31   8100.607909  20818.699010 -14083.068667   -103.651873
PG32  12093.392203  19459.390038  13678.460825     20.480609
PJ01 -29170.529684  23538.135056  24208.135818   -352.371688
PJ02 -35121.726256  23348.526309   5651.142177      2.804957
PJ03 -21248.654623  20773.512680 -25316.597922     -1.333728
PR01  -8402.090478   9958.609293  21934.535891     75.918254
PR02  14304.677249  10259.996903  18528.448338    469.419084
PR03  24947.913643   4135.712054   3591.970228     31.823323
PR04  21392.441353  -4129.370434 -13243.377861     76.475435
PR05   5954.534699 -10067.009750 -22658.890614     67.569484
PR07 -25036.982240  -3801.309666  -2819.665544    -42.514025
PR08 -21321.379680   4290.479286  13367.209280    -57.707711
PR09  -2542.707580 -14373.268502  20913.796804    -18.745971
PR11 -16929.014328  16264.931414   9992.322750      2.625786
PR12 -10669.552699  21709.618960  -8033.348364    209.905583
PR13   1933.787578  14664.146863 -20801.833621    -51.542622
PR14  13707.994151  -1459.059143 -21454.644428     61.666904
PR15  17175.652971 -16247.757846  -9569.714435    105.105395
PR16   9633.769717 -21969.483511   8837.488333    -12.055624
PR17  14133.663530  11987.648876  17523.313654    405.196930
PR18   9263.823147  -4888.952091  23275.013228     68.681248
PR19    416.013517 -18868.613183  17162.507638   -134.414313
PR20 -10232.377521 -23304.701038  -1236.384522    -44.481913
PR21 -13947.839081 -11050.041604 -18281.744788   -192.001660
PR22  -8638.659131   6116.535997 -23222.967908   -100.935048
PR24  10895.298184  22975.378165   2003.336569     33.777715
EOF
